start=new Date('2022-12-07T00:00:00.000Z').valueOf();
sats=[{"COUNTRY_CODE":"US","CENTER_NAME":"EARTH","INCLINATION":"53.0566","OBJECT_TYPE":"PAYLOAD","TLE_LINE2":"2 47591  53.0566 318.1321 0001871  63.4017 296.7163 15.06393947102228","TIME_SYSTEM":"UTC","DECAY_DATE":null,"RCS_SIZE":"LARGE","FILE":"3683281","PERIOD":"95.593","BSTAR":"-0.00000362680000","TLE_LINE1":"1 47591U 21009AV  22340.94022793 -.00000336  00000-0 -36268-5 0  9999","ELEMENT_SET_NO":"999","RA_OF_ASC_NODE":"318.1321","SITE":"AFETR","REV_AT_EPOCH":"10222","MEAN_ANOMALY":"296.7163","SEMIMAJOR_AXIS":"6925.367","MEAN_MOTION_DOT":"-0.00000336","NORAD_CAT_ID":"47591","REF_FRAME":"TEME","MEAN_MOTION_DDOT":"0.0000000000000","MEAN_ELEMENT_THEORY":"SGP4","GP_ID":"219700099","OBJECT_ID":"2021-009AV","EPHEMERIS_TYPE":"0","PERIAPSIS":"545.936","LAUNCH_DATE":"2021-02-04","APOAPSIS":"548.528","EPOCH":"2022-12-06T22:33:55.693152","CLASSIFICATION_TYPE":"U","ARG_OF_PERICENTER":"63.4017","MEAN_MOTION":"15.06393947","ECCENTRICITY":"0.00018710","OBJECT_NAME":"STARLINK-1996"},{"EPHEMERIS_TYPE":"0","PERIAPSIS":"546.041","LAUNCH_DATE":"2021-02-04","GP_ID":"219694594","OBJECT_ID":"2021-009AW","MEAN_MOTION_DDOT":"0.0000000000000","REF_FRAME":"TEME","MEAN_ELEMENT_THEORY":"SGP4","NORAD_CAT_ID":"47592","OBJECT_NAME":"STARLINK-1997","EPOCH":"2022-12-06T16:56:53.331648","CLASSIFICATION_TYPE":"U","ARG_OF_PERICENTER":"63.2568","MEAN_MOTION":"15.06396876","ECCENTRICITY":"0.00017070","APOAPSIS":"548.405","TLE_LINE2":"2 47592  53.0547 339.1766 0001707  63.2568 296.8595 15.06396876101303","TIME_SYSTEM":"UTC","DECAY_DATE":null,"RCS_SIZE":"LARGE","OBJECT_TYPE":"PAYLOAD","CENTER_NAME":"EARTH","INCLINATION":"53.0547","COUNTRY_CODE":"US","MEAN_MOTION_DOT":"0.00000761","MEAN_ANOMALY":"296.8595","SEMIMAJOR_AXIS":"6925.358","RA_OF_ASC_NODE":"339.1766","SITE":"AFETR","REV_AT_EPOCH":"10130","FILE":"3683274","PERIOD":"95.592","TLE_LINE1":"1 47592U 21009AW  22340.70617282  .00000761  00000-0  70019-4 0  9998","ELEMENT_SET_NO":"999","BSTAR":"0.00007001900000"},{"MEAN_MOTION_DDOT":"0.0000000000000","REF_FRAME":"TEME","MEAN_ELEMENT_THEORY":"SGP4","NORAD_CAT_ID":"47593","EPHEMERIS_TYPE":"0","PERIAPSIS":"545.974","LAUNCH_DATE":"2021-02-04","OBJECT_ID":"2021-009AX","GP_ID":"219695344","APOAPSIS":"548.454","OBJECT_NAME":"STARLINK-1998","EPOCH":"2022-12-06T17:49:57.082656","CLASSIFICATION_TYPE":"U","MEAN_MOTION":"15.06399868","ARG_OF_PERICENTER":"62.0961","ECCENTRICITY":"0.00017910","CENTER_NAME":"EARTH","INCLINATION":"53.0566","COUNTRY_CODE":"US","TLE_LINE2":"2 47593  53.0566 338.9998 0001791  62.0961 298.0210 15.06399868101319","TIME_SYSTEM":"UTC","DECAY_DATE":null,"RCS_SIZE":"LARGE","OBJECT_TYPE":"PAYLOAD","RA_OF_ASC_NODE":"338.9998","SITE":"AFETR","REV_AT_EPOCH":"10131","FILE":"3683274","PERIOD":"95.592","TLE_LINE1":"1 47593U 21009AX  22340.74302179 -.00000109  00000-0  11603-4 0  9990","BSTAR":"0.00001160300000","ELEMENT_SET_NO":"999","MEAN_MOTION_DOT":"-0.00000109","MEAN_ANOMALY":"298.0210","SEMIMAJOR_AXIS":"6925.349"},{"EPOCH":"2022-12-06T23:24:21.199968","CLASSIFICATION_TYPE":"U","ARG_OF_PERICENTER":"66.4470","MEAN_MOTION":"15.06385716","ECCENTRICITY":"0.00017700","OBJECT_NAME":"STARLINK-1999","APOAPSIS":"548.483","GP_ID":"219699898","OBJECT_ID":"2021-009AY","EPHEMERIS_TYPE":"0","PERIAPSIS":"546.032","LAUNCH_DATE":"2021-02-04","NORAD_CAT_ID":"47594","MEAN_MOTION_DDOT":"0.0000000000000","REF_FRAME":"TEME","MEAN_ELEMENT_THEORY":"SGP4","MEAN_ANOMALY":"293.6705","SEMIMAJOR_AXIS":"6925.392","MEAN_MOTION_DOT":"-0.00000200","FILE":"3683281","PERIOD":"95.593","ELEMENT_SET_NO":"999","TLE_LINE1":"1 47594U 21009AY  22340.97524537 -.00000200  00000-0  54943-5 0  9997","BSTAR":"0.00000549430000","RA_OF_ASC_NODE":"337.9625","SITE":"AFETR","REV_AT_EPOCH":"10194","OBJECT_TYPE":"PAYLOAD","TLE_LINE2":"2 47594  53.0558 337.9625 0001770  66.4470 293.6705 15.06385716101943","TIME_SYSTEM":"UTC","RCS_SIZE":"LARGE","DECAY_DATE":null,"COUNTRY_CODE":"US","CENTER_NAME":"EARTH","INCLINATION":"53.0558"},{"OBJECT_NAME":"STARLINK-2000","EPOCH":"2022-12-06T16:40:57.175680","ECCENTRICITY":"0.00020290","MEAN_MOTION":"15.06390813","CLASSIFICATION_TYPE":"U","ARG_OF_PERICENTER":"54.6474","APOAPSIS":"548.647","PERIAPSIS":"545.837","EPHEMERIS_TYPE":"0","LAUNCH_DATE":"2021-02-04","OBJECT_ID":"2021-009AZ","GP_ID":"219700100","MEAN_ELEMENT_THEORY":"SGP4","MEAN_MOTION_DDOT":"0.0000000000000","REF_FRAME":"TEME","NORAD_CAT_ID":"47595","MEAN_MOTION_DOT":"-0.00001923","MEAN_ANOMALY":"305.4704","SEMIMAJOR_AXIS":"6925.377","RA_OF_ASC_NODE":"339.2164","REV_AT_EPOCH":"10190","SITE":"AFETR","PERIOD":"95.593","FILE":"3683281","BSTAR":"-0.00011022000000","TLE_LINE1":"1 47595U 21009AZ  22340.69510620 -.00001923  00000-0 -11022-3 0  9998","ELEMENT_SET_NO":"999","TIME_SYSTEM":"UTC","TLE_LINE2":"2 47595  53.0564 339.2164 0002029  54.6474 305.4704 15.06390813101906","DECAY_DATE":null,"RCS_SIZE":"LARGE","OBJECT_TYPE":"PAYLOAD","CENTER_NAME":"EARTH","INCLINATION":"53.0564","COUNTRY_CODE":"US"},{"OBJECT_NAME":"STARLINK-2001","MEAN_MOTION":"15.06401176","CLASSIFICATION_TYPE":"U","ARG_OF_PERICENTER":"75.9818","ECCENTRICITY":"0.00013590","EPOCH":"2022-12-06T23:08:25.961568","APOAPSIS":"548.151","LAUNCH_DATE":"2021-02-04","EPHEMERIS_TYPE":"0","PERIAPSIS":"546.269","GP_ID":"219699920","OBJECT_ID":"2021-009BA","MEAN_MOTION_DDOT":"0.0000000000000","REF_FRAME":"TEME","MEAN_ELEMENT_THEORY":"SGP4","NORAD_CAT_ID":"47596","MEAN_MOTION_DOT":"-0.00000846","SEMIMAJOR_AXIS":"6925.345","MEAN_ANOMALY":"284.1322","SITE":"AFETR","REV_AT_EPOCH":"10194","RA_OF_ASC_NODE":"338.0161","TLE_LINE1":"1 47596U 21009BA  22340.96418937 -.00000846  00000-0 -37932-4 0  9999","ELEMENT_SET_NO":"999","BSTAR":"-0.00003793200000","FILE":"3683280","PERIOD":"95.592","RCS_SIZE":"LARGE","DECAY_DATE":null,"TLE_LINE2":"2 47596  53.0565 338.0161 0001359  75.9818 284.1322 15.06401176101943","TIME_SYSTEM":"UTC","OBJECT_TYPE":"PAYLOAD","INCLINATION":"53.0565","CENTER_NAME":"EARTH","COUNTRY_CODE":"US"},{"LAUNCH_DATE":"2021-02-04","PERIAPSIS":"545.943","EPHEMERIS_TYPE":"0","GP_ID":"219695844","OBJECT_ID":"2021-009BB","MEAN_ELEMENT_THEORY":"SGP4","MEAN_MOTION_DDOT":"0.0000000000000","REF_FRAME":"TEME","NORAD_CAT_ID":"47597","OBJECT_NAME":"STARLINK-2002","ECCENTRICITY":"0.00018640","CLASSIFICATION_TYPE":"U","MEAN_MOTION":"15.06393350","ARG_OF_PERICENTER":"53.2437","EPOCH":"2022-12-06T16:35:39.202080","APOAPSIS":"548.525","RCS_SIZE":"LARGE","DECAY_DATE":null,"TIME_SYSTEM":"UTC","TLE_LINE2":"2 47597  53.0567 339.2475 0001864  53.2437 306.8722 15.06393350101304","OBJECT_TYPE":"PAYLOAD","INCLINATION":"53.0567","CENTER_NAME":"EARTH","COUNTRY_CODE":"US","MEAN_MOTION_DOT":"0.00000278","SEMIMAJOR_AXIS":"6925.369","MEAN_ANOMALY":"306.8722","REV_AT_EPOCH":"10130","SITE":"AFETR","RA_OF_ASC_NODE":"339.2475","TLE_LINE1":"1 47597U 21009BB  22340.69142595  .00000278  00000-0  37597-4 0  9998","BSTAR":"0.00003759700000","ELEMENT_SET_NO":"999","PERIOD":"95.593","FILE":"3683274"},{"SEMIMAJOR_AXIS":"6925.368","MEAN_ANOMALY":"297.6608","MEAN_MOTION_DOT":"0.00000263","ELEMENT_SET_NO":"999","TLE_LINE1":"1 47598U 21009BC  22340.63521128  .00000263  00000-0  36572-4 0  9992","BSTAR":"0.00003657200000","PERIOD":"95.593","FILE":"3683280","REV_AT_EPOCH":"10233","SITE":"AFETR","RA_OF_ASC_NODE":"309.5006","OBJECT_TYPE":"PAYLOAD","DECAY_DATE":null,"RCS_SIZE":"LARGE","TIME_SYSTEM":"UTC","TLE_LINE2":"2 47598  53.0562 309.5006 0001451  62.4529 297.6608 15.06393812102333","COUNTRY_CODE":"US","INCLINATION":"53.0562","CENTER_NAME":"EARTH","ECCENTRICITY":"0.00014510","CLASSIFICATION_TYPE":"U","ARG_OF_PERICENTER":"62.4529","MEAN_MOTION":"15.06393812","EPOCH":"2022-12-06T15:14:42.254592","OBJECT_NAME":"STARLINK-2003","APOAPSIS":"548.237","OBJECT_ID":"2021-009BC","GP_ID":"219699917","LAUNCH_DATE":"2021-02-04","PERIAPSIS":"546.228","EPHEMERIS_TYPE":"0","NORAD_CAT_ID":"47598","MEAN_ELEMENT_THEORY":"SGP4","REF_FRAME":"TEME","MEAN_MOTION_DDOT":"0.0000000000000"},{"FILE":"3683280","PERIOD":"95.593","TLE_LINE1":"1 47599U 21009BD  22340.89046109 -.00000594  00000-0 -20961-4 0  9996","BSTAR":"-0.00002096100000","ELEMENT_SET_NO":"999","RA_OF_ASC_NODE":"298.3506","SITE":"AFETR","REV_AT_EPOCH":"10250","MEAN_ANOMALY":"288.9901","SEMIMAJOR_AXIS":"6925.374","MEAN_MOTION_DOT":"-0.00000594","COUNTRY_CODE":"US","CENTER_NAME":"EARTH","INCLINATION":"53.0549","OBJECT_TYPE":"PAYLOAD","TLE_LINE2":"2 47599  53.0549 298.3506 0001441  71.1244 288.9901 15.06391834102509","TIME_SYSTEM":"UTC","DECAY_DATE":null,"RCS_SIZE":"LARGE","APOAPSIS":"548.237","EPOCH":"2022-12-06T21:22:15.838176","CLASSIFICATION_TYPE":"U","MEAN_MOTION":"15.06391834","ARG_OF_PERICENTER":"71.1244","ECCENTRICITY":"0.00014410","OBJECT_NAME":"STARLINK-2004","NORAD_CAT_ID":"47599","REF_FRAME":"TEME","MEAN_MOTION_DDOT":"0.0000000000000","MEAN_ELEMENT_THEORY":"SGP4","GP_ID":"219700121","OBJECT_ID":"2021-009BD","EPHEMERIS_TYPE":"0","PERIAPSIS":"546.241","LAUNCH_DATE":"2021-02-04"},{"APOAPSIS":"548.476","OBJECT_NAME":"STARLINK-2005","EPOCH":"2022-12-06T21:59:24.891648","ARG_OF_PERICENTER":"58.2312","CLASSIFICATION_TYPE":"U","MEAN_MOTION":"15.06389871","ECCENTRICITY":"0.00017780","MEAN_MOTION_DDOT":"0.0000000000000","REF_FRAME":"TEME","MEAN_ELEMENT_THEORY":"SGP4","NORAD_CAT_ID":"47600","EPHEMERIS_TYPE":"0","PERIAPSIS":"546.013","LAUNCH_DATE":"2021-02-04","OBJECT_ID":"2021-009BE","GP_ID":"219699916","RA_OF_ASC_NODE":"298.1983","SITE":"AFETR","REV_AT_EPOCH":"10251","FILE":"3683280","PERIOD":"95.593","ELEMENT_SET_NO":"999","TLE_LINE1":"1 47600U 21009BE  22340.91626032 -.00000380  00000-0 -66256-5 0  9992","BSTAR":"-0.00000662560000","MEAN_MOTION_DOT":"-0.00000380","MEAN_ANOMALY":"301.8850","SEMIMAJOR_AXIS":"6925.380","CENTER_NAME":"EARTH","INCLINATION":"53.0563","COUNTRY_CODE":"US","TLE_LINE2":"2 47600  53.0563 298.1983 0001778  58.2312 301.8850 15.06389871102517","TIME_SYSTEM":"UTC","DECAY_DATE":null,"RCS_SIZE":"LARGE","OBJECT_TYPE":"PAYLOAD"}];
